[{"OBJECT_NAME":"DONGPO 10","OBJECT_ID":"2022-167H","EPOCH":"2026-03-09T22:44:56.137344","MEAN_MOTION":15.322785,"ECCENTRICITY":0.00061655,"INCLINATION":97.685,"RA_OF_ASC_NODE":235.0962,"ARG_OF_PERICENTER":106.9526,"MEAN_ANOMALY":253.2392,"EPHEMERIS_TYPE":0,"CLASSIFICATION_TYPE":"U","NORAD_CAT_ID":54689,"ELEMENT_SET_NO":999,"REV_AT_EPOCH":18015,"BSTAR":0.00049390523,"MEAN_MOTION_DOT":0.00015333,"MEAN_MOTION_DDOT":0},{"OBJECT_NAME":"STARLINK-31644","OBJECT_ID":"2024-062T","EPOCH":"2026-03-09T22:41:52.297152","MEAN_MOTION":15.3018208,"ECCENTRICITY":9.963e-5,"INCLINATION":53.1599,"RA_OF_ASC_NODE":257.1001,"ARG_OF_PERICENTER":95.3881,"MEAN_ANOMALY":264.7234,"EPHEMERIS_TYPE":0,"CLASSIFICATION_TYPE":"U","NORAD_CAT_ID":59391,"ELEMENT_SET_NO":999,"REV_AT_EPOCH":10967,"BSTAR":-4.2502437e-5,"MEAN_MOTION_DOT":-1.617e-5,"MEAN_MOTION_DDOT":0}]
